{
  "type": "FeatureCollection",
  "features": [
    {
      "type": "Feature",
      "properties": {
        "norad_id": 19071,
        "name": "OSCAR 32",
        "group": "nnss",
        "lat": -34.00107244482988,
        "lon": 16.841474060992766,
        "alt_km": 1299.6438128798027,
        "timestamp": "2025-12-15T22:44:29.196408+00:00",
        "meta_object_name": "OSCAR 32",
        "meta_object_id": "1988-033B",
        "meta_epoch": "2025-12-15T08:30:28.550304",
        "meta_mean_motion": 13.27954305,
        "meta_eccentricity": 0.01885715,
        "meta_inclination": 90.3216,
        "meta_ra_of_asc_node": 16.6059,
        "meta_arg_of_pericenter": 159.5373,
        "meta_mean_anomaly": 212.5443,
        "meta_ephemeris_type": 0,
        "meta_classification_type": "U",
        "meta_norad_cat_id": 19071,
        "meta_element_set_no": 999,
        "meta_rev_at_epoch": 82300,
        "meta_bstar": 0.00013797367,
        "meta_mean_motion_dot": 7.8e-07,
        "meta_mean_motion_ddot": 0,
        "tle_line1": "1 19071U 88033B   25349.35449711  .00000078  00000+0  13797-3 0  9991",
        "tle_line2": "2 19071  90.3216  16.6059 0188571 159.5373 212.5443 13.27954305823004"
      },
      "geometry": {
        "type": "Point",
        "coordinates": [
          16.841474060992766,
          -34.00107244482988
        ]
      }
    },
    {
      "type": "Feature",
      "properties": {
        "norad_id": 19223,
        "name": "NOVA 2",
        "group": "nnss",
        "lat": 74.61483456673722,
        "lon": -101.77799896883373,
        "alt_km": 1169.333678343557,
        "timestamp": "2025-12-15T22:44:29.196418+00:00",
        "meta_object_name": "NOVA 2",
        "meta_object_id": "1988-052A",
        "meta_epoch": "2025-12-15T08:01:17.059872",
        "meta_mean_motion": 13.22936168,
        "meta_eccentricity": 0.00303703,
        "meta_inclination": 89.9872,
        "meta_ra_of_asc_node": 78.2693,
        "meta_arg_of_pericenter": 9.8298,
        "meta_mean_anomaly": 55.8232,
        "meta_ephemeris_type": 0,
        "meta_classification_type": "U",
        "meta_norad_cat_id": 19223,
        "meta_element_set_no": 999,
        "meta_rev_at_epoch": 80982,
        "meta_bstar": 6.2442495e-05,
        "meta_mean_motion_dot": 3.5e-07,
        "meta_mean_motion_ddot": 0,
        "tle_line1": "1 19223U 88052A   25349.33422523  .00000035  00000+0  62442-4 0  9996",
        "tle_line2": "2 19223  89.9872  78.2693 0030370   9.8298  55.8232 13.22936168809829"
      },
      "geometry": {
        "type": "Point",
        "coordinates": [
          -101.77799896883373,
          74.61483456673722
        ]
      }
    },
    {
      "type": "Feature",
      "properties": {
        "norad_id": 19419,
        "name": "OSCAR 25",
        "group": "nnss",
        "lat": 48.332075274617594,
        "lon": 20.215978931985546,
        "alt_km": 1165.2310061113767,
        "timestamp": "2025-12-15T22:44:29.196429+00:00",
        "meta_object_name": "OSCAR 25",
        "meta_object_id": "1988-074A",
        "meta_epoch": "2025-12-15T08:14:49.522272",
        "meta_mean_motion": 13.4262376,
        "meta_eccentricity": 0.00945669,
        "meta_inclination": 90.0346,
        "meta_ra_of_asc_node": 20.2528,
        "meta_arg_of_pericenter": 238.2902,
        "meta_mean_anomaly": 132.6112,
        "meta_ephemeris_type": 0,
        "meta_classification_type": "U",
        "meta_norad_cat_id": 19419,
        "meta_element_set_no": 999,
        "meta_rev_at_epoch": 82675,
        "meta_bstar": 0.00017623205,
        "meta_mean_motion_dot": 1.11e-06,
        "meta_mean_motion_ddot": 0,
        "tle_line1": "1 19419U 88074A   25349.34362873  .00000111  00000+0  17623-3 0  9994",
        "tle_line2": "2 19419  90.0346  20.2528 0094566 238.2902 132.6112 13.42623760826751"
      },
      "geometry": {
        "type": "Point",
        "coordinates": [
          20.215978931985546,
          48.332075274617594
        ]
      }
    },
    {
      "type": "Feature",
      "properties": {
        "norad_id": 19420,
        "name": "OSCAR 31",
        "group": "nnss",
        "lat": -67.54150367698064,
        "lon": 20.69301484455454,
        "alt_km": 1073.698247494067,
        "timestamp": "2025-12-15T22:44:29.196439+00:00",
        "meta_object_name": "OSCAR 31",
        "meta_object_id": "1988-074B",
        "meta_epoch": "2025-12-15T08:49:31.276704",
        "meta_mean_motion": 13.42584948,
        "meta_eccentricity": 0.0092896,
        "meta_inclination": 90.0362,
        "meta_ra_of_asc_node": 20.6033,
        "meta_arg_of_pericenter": 232.3453,
        "meta_mean_anomaly": 138.351,
        "meta_ephemeris_type": 0,
        "meta_classification_type": "U",
        "meta_norad_cat_id": 19420,
        "meta_element_set_no": 999,
        "meta_rev_at_epoch": 82686,
        "meta_bstar": 0.00014482295,
        "meta_mean_motion_dot": 9.3e-07,
        "meta_mean_motion_ddot": 0,
        "tle_line1": "1 19420U 88074B   25349.36772311  .00000093  00000+0  14482-3 0  9999",
        "tle_line2": "2 19420  90.0362  20.6033 0092896 232.3453 138.3510 13.42584948826867"
      },
      "geometry": {
        "type": "Point",
        "coordinates": [
          20.69301484455454,
          -67.54150367698064
        ]
      }
    }
  ]
}